GLOBALSTAR M024         
1 25883U 99043A   24142.44272200 -.00000096  00000+0 -10966-2 0  9995
2 25883  51.9984 184.5282 0001754 190.7992 272.3983 11.10158664 71351
GLOBALSTAR M027         
1 25884U 99043B   24142.57673520 -.00000057  00000+0  27166-3 0  9997
2 25884  52.0210 251.1137 0021554  80.5174 279.8054 11.04368716 97975
GLOBALSTAR M054         
1 25885U 99043C   24142.09853664 -.00000074  00000+0 -61954-4 0  9998
2 25885  52.0138  85.2721 0004355 229.0202 221.9511 11.39203473 74362
GLOBALSTAR M053         
1 25886U 99043D   24142.03065028 -.00000052  00000+0  47982-3 0  9991
2 25886  52.0016  10.7767 0003853 126.2384  23.4142 11.27655156 75207
GLOBALSTAR M058         
1 25907U 99049A   24142.17622204 -.00000038  00000+0  61994-3 0  9994
2 25907  51.9950  75.9261 0002010 251.6501 108.4115 11.93178435494747
GLOBALSTAR M050         
1 25908U 99049B   24142.43710587 -.00000021  00000+0  76101-3 0  9994
2 25908  51.9974 112.1734 0009339 332.5599 209.9495 12.07434886100866
